H-2A R/B                
1 38341U 12025E   25318.85081740  .00004859  00000+0  45113-3 0  9993
2 38341  98.4547 271.9439 0044903 330.1759  29.6901 14.94171930731064
SHIJIAN-16 (SJ-16)      
1 39358U 13057A   25318.77339172  .00003734  00000+0  37139-3 0  9994
2 39358  74.9747  42.5632 0016481  27.4280 332.7775 14.91859529654364
SL-4 R/B                
1 39679U 14021B   25318.83752799  .00016605  00000+0  40335-3 0  9996
2 39679  51.6057 176.0973 0103835  45.8418 315.1043 15.35691743638607
ALOS-2                  
1 39766U 14029A   25318.74302696  .00003282  00000+0  44636-3 0  9993
2 39766  97.9231  53.9867 0001440  99.8250 260.3124 14.79454791619874
YAOGAN-29               
1 41038U 15069A   25318.88359725  .00000997  00000+0  12984-3 0  9994
2 41038  98.0249 341.9620 0002052  44.3021 315.8356 14.82837714538864
ASTRO-H (HITOMI)        
1 41337U 16012A   25318.84652966  .00004149  00000+0  24933-3 0  9994
2 41337  31.0011  17.1548 0009901 257.1149 102.8382 15.09111475534864
HXMT (HUIYAN)           
1 42758U 17034A   25318.79005061  .00008717  00000+0  45314-3 0  9990
2 42758  43.0144 294.6828 0033830 230.1609 129.6260 15.15830427465097
CZ-2C R/B               
1 43521U 18054D   25318.45448220  .00096740  00000+0  81963-3 0  9996
2 43521  35.1367  11.7977 0023884 226.8642 133.0091 15.68023418410605
SAOCOM 1A               
1 43641U 18076A   25318.85756159  .00001034  00000+0  13635-3 0  9993
2 43641  97.8862 143.6843 0001376  91.1521 268.9849 14.82168389384354
H-2A R/B                
1 43682U 18084L   25318.43213591  .00022502  00000+0  63390-3 0  9995
2 43682  98.8799 146.6761 0029149  62.5028 297.9169 15.36046562388059
SAOCOM 1B               
1 46265U 20059A   25318.82130177  .00001049  00000+0  13828-3 0  9995
2 46265  97.8852 142.7507 0001478  86.2834 273.8548 14.82175583281733
CSS (TIANHE)            
1 48274U 21035A   25318.71809687  .00030906  00000+0  35704-3 0  9990
2 48274  41.4648 186.7518 0003813  27.8492 332.2550 15.61215917259652
