CCSDS_OMM_VERS = 2.0
CREATION_DATE  = 
ORIGINATOR     = 

OBJECT_NAME    = H-2A R/B
OBJECT_ID      = 2012-025E
CENTER_NAME    = EARTH
REF_FRAME      = TEME
TIME_SYSTEM    = UTC
MEAN_ELEMENT_THEORY = SGP/SGP4

EPOCH          = 2025-11-14T20:25:10.623360
MEAN_MOTION    = 14.94171930
ECCENTRICITY   = .0044903
INCLINATION    = 98.4547
RA_OF_ASC_NODE = 271.9439
ARG_OF_PERICENTER = 330.1759
MEAN_ANOMALY   = 29.6901

EPHEMERIS_TYPE = 0
CLASSIFICATION_TYPE = U
NORAD_CAT_ID   = 38341
ELEMENT_SET_NO = 999
REV_AT_EPOCH   = 73106
BSTAR          = .45113E-3
MEAN_MOTION_DOT = .4859E-4
MEAN_MOTION_DDOT = 0

CCSDS_OMM_VERS = 2.0
CREATION_DATE  = 
ORIGINATOR     = 

OBJECT_NAME    = SHIJIAN-16 (SJ-16)
OBJECT_ID      = 2013-057A
CENTER_NAME    = EARTH
REF_FRAME      = TEME
TIME_SYSTEM    = UTC
MEAN_ELEMENT_THEORY = SGP/SGP4

EPOCH          = 2025-11-14T18:33:41.044608
MEAN_MOTION    = 14.91859529
ECCENTRICITY   = .0016481
INCLINATION    = 74.9747
RA_OF_ASC_NODE = 42.5632
ARG_OF_PERICENTER = 27.4280
MEAN_ANOMALY   = 332.7775

EPHEMERIS_TYPE = 0
CLASSIFICATION_TYPE = U
NORAD_CAT_ID   = 39358
ELEMENT_SET_NO = 999
REV_AT_EPOCH   = 65436
BSTAR          = .37139E-3
MEAN_MOTION_DOT = .3734E-4
MEAN_MOTION_DDOT = 0

CCSDS_OMM_VERS = 2.0
CREATION_DATE  = 
ORIGINATOR     = 

OBJECT_NAME    = SL-4 R/B
OBJECT_ID      = 2014-021B
CENTER_NAME    = EARTH
REF_FRAME      = TEME
TIME_SYSTEM    = UTC
MEAN_ELEMENT_THEORY = SGP/SGP4

EPOCH          = 2025-11-14T20:06:02.418336
MEAN_MOTION    = 15.35691743
ECCENTRICITY   = .0103835
INCLINATION    = 51.6057
RA_OF_ASC_NODE = 176.0973
ARG_OF_PERICENTER = 45.8418
MEAN_ANOMALY   = 315.1043

EPHEMERIS_TYPE = 0
CLASSIFICATION_TYPE = U
NORAD_CAT_ID   = 39679
ELEMENT_SET_NO = 999
REV_AT_EPOCH   = 63860
BSTAR          = .40335E-3
MEAN_MOTION_DOT = .16605E-3
MEAN_MOTION_DDOT = 0

CCSDS_OMM_VERS = 2.0
CREATION_DATE  = 
ORIGINATOR     = 

OBJECT_NAME    = ALOS-2
OBJECT_ID      = 2014-029A
CENTER_NAME    = EARTH
REF_FRAME      = TEME
TIME_SYSTEM    = UTC
MEAN_ELEMENT_THEORY = SGP/SGP4

EPOCH          = 2025-11-14T17:49:57.529344
MEAN_MOTION    = 14.79454791
ECCENTRICITY   = .000144
INCLINATION    = 97.9231
RA_OF_ASC_NODE = 53.9867
ARG_OF_PERICENTER = 99.8250
MEAN_ANOMALY   = 260.3124

EPHEMERIS_TYPE = 0
CLASSIFICATION_TYPE = U
NORAD_CAT_ID   = 39766
ELEMENT_SET_NO = 999
REV_AT_EPOCH   = 61987
BSTAR          = .44636E-3
MEAN_MOTION_DOT = .3282E-4
MEAN_MOTION_DDOT = 0

CCSDS_OMM_VERS = 2.0
CREATION_DATE  = 
ORIGINATOR     = 

OBJECT_NAME    = YAOGAN-29
OBJECT_ID      = 2015-069A
CENTER_NAME    = EARTH
REF_FRAME      = TEME
TIME_SYSTEM    = UTC
MEAN_ELEMENT_THEORY = SGP/SGP4

EPOCH          = 2025-11-14T21:12:22.802400
MEAN_MOTION    = 14.82837714
ECCENTRICITY   = .0002052
INCLINATION    = 98.0249
RA_OF_ASC_NODE = 341.9620
ARG_OF_PERICENTER = 44.3021
MEAN_ANOMALY   = 315.8356

EPHEMERIS_TYPE = 0
CLASSIFICATION_TYPE = U
NORAD_CAT_ID   = 41038
ELEMENT_SET_NO = 999
REV_AT_EPOCH   = 53886
BSTAR          = .12984E-3
MEAN_MOTION_DOT = .997E-5
MEAN_MOTION_DDOT = 0

CCSDS_OMM_VERS = 2.0
CREATION_DATE  = 
ORIGINATOR     = 

OBJECT_NAME    = ASTRO-H (HITOMI)
OBJECT_ID      = 2016-012A
CENTER_NAME    = EARTH
REF_FRAME      = TEME
TIME_SYSTEM    = UTC
MEAN_ELEMENT_THEORY = SGP/SGP4

EPOCH          = 2025-11-14T20:19:00.162624
MEAN_MOTION    = 15.09111475
ECCENTRICITY   = .0009901
INCLINATION    = 31.0011
RA_OF_ASC_NODE = 17.1548
ARG_OF_PERICENTER = 257.1149
MEAN_ANOMALY   = 102.8382

EPHEMERIS_TYPE = 0
CLASSIFICATION_TYPE = U
NORAD_CAT_ID   = 41337
ELEMENT_SET_NO = 999
REV_AT_EPOCH   = 53486
BSTAR          = .24933E-3
MEAN_MOTION_DOT = .4149E-4
MEAN_MOTION_DDOT = 0

CCSDS_OMM_VERS = 2.0
CREATION_DATE  = 
ORIGINATOR     = 

OBJECT_NAME    = HXMT (HUIYAN)
OBJECT_ID      = 2017-034A
CENTER_NAME    = EARTH
REF_FRAME      = TEME
TIME_SYSTEM    = UTC
MEAN_ELEMENT_THEORY = SGP/SGP4

EPOCH          = 2025-11-14T18:57:40.372704
MEAN_MOTION    = 15.15830427
ECCENTRICITY   = .003383
INCLINATION    = 43.0144
RA_OF_ASC_NODE = 294.6828
ARG_OF_PERICENTER = 230.1609
MEAN_ANOMALY   = 129.6260

EPHEMERIS_TYPE = 0
CLASSIFICATION_TYPE = U
NORAD_CAT_ID   = 42758
ELEMENT_SET_NO = 999
REV_AT_EPOCH   = 46509
BSTAR          = .45314E-3
MEAN_MOTION_DOT = .8717E-4
MEAN_MOTION_DDOT = 0

CCSDS_OMM_VERS = 2.0
CREATION_DATE  = 
ORIGINATOR     = 

OBJECT_NAME    = CZ-2C R/B
OBJECT_ID      = 2018-054D
CENTER_NAME    = EARTH
REF_FRAME      = TEME
TIME_SYSTEM    = UTC
MEAN_ELEMENT_THEORY = SGP/SGP4

EPOCH          = 2025-11-14T10:54:27.262080
MEAN_MOTION    = 15.68023418
ECCENTRICITY   = .0023884
INCLINATION    = 35.1367
RA_OF_ASC_NODE = 11.7977
ARG_OF_PERICENTER = 226.8642
MEAN_ANOMALY   = 133.0091

EPHEMERIS_TYPE = 0
CLASSIFICATION_TYPE = U
NORAD_CAT_ID   = 43521
ELEMENT_SET_NO = 999
REV_AT_EPOCH   = 41060
BSTAR          = .81963E-3
MEAN_MOTION_DOT = .9674E-3
MEAN_MOTION_DDOT = 0

CCSDS_OMM_VERS = 2.0
CREATION_DATE  = 
ORIGINATOR     = 

OBJECT_NAME    = SAOCOM 1A
OBJECT_ID      = 2018-076A
CENTER_NAME    = EARTH
REF_FRAME      = TEME
TIME_SYSTEM    = UTC
MEAN_ELEMENT_THEORY = SGP/SGP4

EPOCH          = 2025-11-14T20:34:53.321376
MEAN_MOTION    = 14.82168389
ECCENTRICITY   = .0001376
INCLINATION    = 97.8862
RA_OF_ASC_NODE = 143.6843
ARG_OF_PERICENTER = 91.1521
MEAN_ANOMALY   = 268.9849

EPHEMERIS_TYPE = 0
CLASSIFICATION_TYPE = U
NORAD_CAT_ID   = 43641
ELEMENT_SET_NO = 999
REV_AT_EPOCH   = 38435
BSTAR          = .13635E-3
MEAN_MOTION_DOT = .1034E-4
MEAN_MOTION_DDOT = 0

CCSDS_OMM_VERS = 2.0
CREATION_DATE  = 
ORIGINATOR     = 

OBJECT_NAME    = H-2A R/B
OBJECT_ID      = 2018-084L
CENTER_NAME    = EARTH
REF_FRAME      = TEME
TIME_SYSTEM    = UTC
MEAN_ELEMENT_THEORY = SGP/SGP4

EPOCH          = 2025-11-14T10:22:16.542624
MEAN_MOTION    = 15.36046562
ECCENTRICITY   = .0029149
INCLINATION    = 98.8799
RA_OF_ASC_NODE = 146.6761
ARG_OF_PERICENTER = 62.5028
MEAN_ANOMALY   = 297.9169

EPHEMERIS_TYPE = 0
CLASSIFICATION_TYPE = U
NORAD_CAT_ID   = 43682
ELEMENT_SET_NO = 999
REV_AT_EPOCH   = 38805
BSTAR          = .6339E-3
MEAN_MOTION_DOT = .22502E-3
MEAN_MOTION_DDOT = 0

CCSDS_OMM_VERS = 2.0
CREATION_DATE  = 
ORIGINATOR     = 

OBJECT_NAME    = SAOCOM 1B
OBJECT_ID      = 2020-059A
CENTER_NAME    = EARTH
REF_FRAME      = TEME
TIME_SYSTEM    = UTC
MEAN_ELEMENT_THEORY = SGP/SGP4

EPOCH          = 2025-11-14T19:42:40.472928
MEAN_MOTION    = 14.82175583
ECCENTRICITY   = .0001478
INCLINATION    = 97.8852
RA_OF_ASC_NODE = 142.7507
ARG_OF_PERICENTER = 86.2834
MEAN_ANOMALY   = 273.8548

EPHEMERIS_TYPE = 0
CLASSIFICATION_TYPE = U
NORAD_CAT_ID   = 46265
ELEMENT_SET_NO = 999
REV_AT_EPOCH   = 28173
BSTAR          = .13828E-3
MEAN_MOTION_DOT = .1049E-4
MEAN_MOTION_DDOT = 0

CCSDS_OMM_VERS = 2.0
CREATION_DATE  = 
ORIGINATOR     = 

OBJECT_NAME    = CSS (TIANHE)
OBJECT_ID      = 2021-035A
CENTER_NAME    = EARTH
REF_FRAME      = TEME
TIME_SYSTEM    = UTC
MEAN_ELEMENT_THEORY = SGP/SGP4

EPOCH          = 2025-11-14T17:14:03.569568
MEAN_MOTION    = 15.61215917
ECCENTRICITY   = .0003813
INCLINATION    = 41.4648
RA_OF_ASC_NODE = 186.7518
ARG_OF_PERICENTER = 27.8492
MEAN_ANOMALY   = 332.2550

EPHEMERIS_TYPE = 0
CLASSIFICATION_TYPE = U
NORAD_CAT_ID   = 48274
ELEMENT_SET_NO = 999
REV_AT_EPOCH   = 25965
BSTAR          = .35704E-3
MEAN_MOTION_DOT = .30906E-3
MEAN_MOTION_DDOT = 0

